COSMOS 2084             
1 20663U 90055A   26136.85483266  .00000971  00000+0  80158-4 0  9998
2 20663  62.7880 103.0198 0006963 228.8014 131.2487 15.05974545946584
SL-6 R/B(2)             
1 20666U 90055D   26136.06765940  .00001035  00000+0  88559-4 0  9991
2 20666  62.7833  24.6654 0035533   0.4104 359.7018 15.03882432948321
SL-8 R/B                
1 20775U 90078B   26136.80289856  .00017798  00000+0  50769-3 0  9990
2 20775  82.9032 189.9718 0354899 144.0197 218.5495 14.91253038819440
SL-8 R/B                
1 21088U 91006B   26136.70707043 -.00000045  00000+0 -60549-4 0  9999
2 21088  82.9398 119.4537 0021799 201.2490 331.5916 13.77504846773433
OKEAN-3                 
1 21397U 91039A   26136.82838750  .00001539  00000+0  10579-3 0  9995
2 21397  82.5147 270.7865 0015903  98.0238 262.2794 15.05161044875283
COSMOS 2151             
1 21422U 91042A   26136.78157872  .00000691  00000+0  52804-4 0  9998
2 21422  82.4982  17.9874 0012067 181.8196 178.2986 15.00348414873405
SL-14 R/B               
1 21423U 91042B   26136.75481426  .00000228  00000+0  25787-4 0  9997
2 21423  82.4919 156.3732 0017552  22.6575 337.5410 14.81881095863152
ERS-1                   
1 21574U 91050A   26136.81675623  .00000217  00000+0  83953-4 0  9991
2 21574  98.7817 156.7465 0031891   2.4440 357.6897 14.39496820825535
ARIANE 40 R/B           
1 21610U 91050F   26136.42854091  .00000170  00000+0  63194-4 0  9990
2 21610  98.1898 186.0789 0002374 204.0767 156.0314 14.42936664828762
INTERCOSMOS 25          
1 21819U 91086A   26136.83236019  .00000843  00000+0  16529-3 0  9995
2 21819  82.6023 268.7844 1485299 330.0501  22.3039 12.12156120504945
SL-8 R/B                
1 21876U 92008B   26136.66043372  .00000064  00000+0  50328-4 0  9993
2 21876  82.9287 217.2253 0033377 306.0568 218.8546 13.75972755718769
SL-8 R/B                
1 21938U 92020B   26136.83879615 -.00000019  00000+0 -36110-4 0  9997
2 21938  82.9282 103.1414 0030407 106.5710 264.5961 13.75546750710503
USA 81                  
1 21949U 92023A   26136.83942933  .00000115  00000+0  35262-4 0  9998
2 21949  85.0060  92.0982 0002178 109.5298 250.6130 14.32388537104543
