[
    {
        "OBJECT_NAME": "COSMOS 2084",
        "OBJECT_ID": "1990-055A",
        "EPOCH": "2026-05-16T20:30:57.541824",
        "MEAN_MOTION": 15.05974545,
        "ECCENTRICITY": 0.0006963,
        "INCLINATION": 62.788,
        "RA_OF_ASC_NODE": 103.0198,
        "ARG_OF_PERICENTER": 228.8014,
        "MEAN_ANOMALY": 131.2487,
        "EPHEMERIS_TYPE": 0,
        "CLASSIFICATION_TYPE": "U",
        "NORAD_CAT_ID": 20663,
        "ELEMENT_SET_NO": 999,
        "REV_AT_EPOCH": 94658,
        "BSTAR": 8.0158e-05,
        "MEAN_MOTION_DOT": 9.71e-06,
        "MEAN_MOTION_DDOT": 0
    },
    {
        "OBJECT_NAME": "SL-6 R/B(2)",
        "OBJECT_ID": "1990-055D",
        "EPOCH": "2026-05-16T01:37:25.772160",
        "MEAN_MOTION": 15.03882432,
        "ECCENTRICITY": 0.00355331,
        "INCLINATION": 62.7833,
        "RA_OF_ASC_NODE": 24.6654,
        "ARG_OF_PERICENTER": 0.4104,
        "MEAN_ANOMALY": 359.7018,
        "EPHEMERIS_TYPE": 0,
        "CLASSIFICATION_TYPE": "U",
        "NORAD_CAT_ID": 20666,
        "ELEMENT_SET_NO": 999,
        "REV_AT_EPOCH": 94832,
        "BSTAR": 8.855926e-05,
        "MEAN_MOTION_DOT": 1.035e-05,
        "MEAN_MOTION_DDOT": 0
    },
    {
        "OBJECT_NAME": "SL-8 R/B",
        "OBJECT_ID": "1990-078B",
        "EPOCH": "2026-05-16T19:16:10.435584",
        "MEAN_MOTION": 14.91253038,
        "ECCENTRICITY": 0.0354899,
        "INCLINATION": 82.9032,
        "RA_OF_ASC_NODE": 189.9718,
        "ARG_OF_PERICENTER": 144.0197,
        "MEAN_ANOMALY": 218.5495,
        "EPHEMERIS_TYPE": 0,
        "CLASSIFICATION_TYPE": "U",
        "NORAD_CAT_ID": 20775,
        "ELEMENT_SET_NO": 999,
        "REV_AT_EPOCH": 81944,
        "BSTAR": 0.00050769,
        "MEAN_MOTION_DOT": 0.00017798,
        "MEAN_MOTION_DDOT": 0
    },
    {
        "OBJECT_NAME": "SL-8 R/B",
        "OBJECT_ID": "1991-006B",
        "EPOCH": "2026-05-16T16:58:10.885152",
        "MEAN_MOTION": 13.77504846,
        "ECCENTRICITY": 0.0021799,
        "INCLINATION": 82.9398,
        "RA_OF_ASC_NODE": 119.4537,
        "ARG_OF_PERICENTER": 201.249,
        "MEAN_ANOMALY": 331.5916,
        "EPHEMERIS_TYPE": 0,
        "CLASSIFICATION_TYPE": "U",
        "NORAD_CAT_ID": 21088,
        "ELEMENT_SET_NO": 999,
        "REV_AT_EPOCH": 77343,
        "BSTAR": -6.0549e-05,
        "MEAN_MOTION_DOT": -4.5e-07,
        "MEAN_MOTION_DDOT": 0
    },
    {
        "OBJECT_NAME": "OKEAN-3",
        "OBJECT_ID": "1991-039A",
        "EPOCH": "2026-05-16T19:52:52.680000",
        "MEAN_MOTION": 15.05161044,
        "ECCENTRICITY": 0.0015903,
        "INCLINATION": 82.5147,
        "RA_OF_ASC_NODE": 270.7865,
        "ARG_OF_PERICENTER": 98.0238,
        "MEAN_ANOMALY": 262.2794,
        "EPHEMERIS_TYPE": 0,
        "CLASSIFICATION_TYPE": "U",
        "NORAD_CAT_ID": 21397,
        "ELEMENT_SET_NO": 999,
        "REV_AT_EPOCH": 87528,
        "BSTAR": 0.00010579,
        "MEAN_MOTION_DOT": 1.539e-05,
        "MEAN_MOTION_DDOT": 0
    },
    {
        "OBJECT_NAME": "COSMOS 2151",
        "OBJECT_ID": "1991-042A",
        "EPOCH": "2026-05-16T18:45:28.401408",
        "MEAN_MOTION": 15.00348414,
        "ECCENTRICITY": 0.0012067,
        "INCLINATION": 82.4982,
        "RA_OF_ASC_NODE": 17.9874,
        "ARG_OF_PERICENTER": 181.8196,
        "MEAN_ANOMALY": 178.2986,
        "EPHEMERIS_TYPE": 0,
        "CLASSIFICATION_TYPE": "U",
        "NORAD_CAT_ID": 21422,
        "ELEMENT_SET_NO": 999,
        "REV_AT_EPOCH": 87340,
        "BSTAR": 5.2804e-05,
        "MEAN_MOTION_DOT": 6.91e-06,
        "MEAN_MOTION_DDOT": 0
    },
    {
        "OBJECT_NAME": "SL-14 R/B",
        "OBJECT_ID": "1991-042B",
        "EPOCH": "2026-05-16T18:06:55.952064",
        "MEAN_MOTION": 14.81881095,
        "ECCENTRICITY": 0.0017552,
        "INCLINATION": 82.4919,
        "RA_OF_ASC_NODE": 156.3732,
        "ARG_OF_PERICENTER": 22.6575,
        "MEAN_ANOMALY": 337.541,
        "EPHEMERIS_TYPE": 0,
        "CLASSIFICATION_TYPE": "U",
        "NORAD_CAT_ID": 21423,
        "ELEMENT_SET_NO": 999,
        "REV_AT_EPOCH": 86315,
        "BSTAR": 2.5787e-05,
        "MEAN_MOTION_DOT": 2.28e-06,
        "MEAN_MOTION_DDOT": 0
    },
    {
        "OBJECT_NAME": "ERS-1",
        "OBJECT_ID": "1991-050A",
        "EPOCH": "2026-05-16T19:36:07.738272",
        "MEAN_MOTION": 14.3949682,
        "ECCENTRICITY": 0.0031891,
        "INCLINATION": 98.7817,
        "RA_OF_ASC_NODE": 156.7465,
        "ARG_OF_PERICENTER": 2.444,
        "MEAN_ANOMALY": 357.6897,
        "EPHEMERIS_TYPE": 0,
        "CLASSIFICATION_TYPE": "U",
        "NORAD_CAT_ID": 21574,
        "ELEMENT_SET_NO": 999,
        "REV_AT_EPOCH": 82553,
        "BSTAR": 8.3953e-05,
        "MEAN_MOTION_DOT": 2.17e-06,
        "MEAN_MOTION_DDOT": 0
    },
    {
        "OBJECT_NAME": "ARIANE 40 R/B",
        "OBJECT_ID": "1991-050F",
        "EPOCH": "2026-05-16T10:17:05.934624",
        "MEAN_MOTION": 14.42936664,
        "ECCENTRICITY": 0.00023748,
        "INCLINATION": 98.1898,
        "RA_OF_ASC_NODE": 186.0789,
        "ARG_OF_PERICENTER": 204.0767,
        "MEAN_ANOMALY": 156.0314,
        "EPHEMERIS_TYPE": 0,
        "CLASSIFICATION_TYPE": "U",
        "NORAD_CAT_ID": 21610,
        "ELEMENT_SET_NO": 999,
        "REV_AT_EPOCH": 82876,
        "BSTAR": 6.3194287e-05,
        "MEAN_MOTION_DOT": 1.7e-06,
        "MEAN_MOTION_DDOT": 0
    },
    {
        "OBJECT_NAME": "INTERCOSMOS 25",
        "OBJECT_ID": "1991-086A",
        "EPOCH": "2026-05-16T19:58:35.920416",
        "MEAN_MOTION": 12.1215612,
        "ECCENTRICITY": 0.1485299,
        "INCLINATION": 82.6023,
        "RA_OF_ASC_NODE": 268.7844,
        "ARG_OF_PERICENTER": 330.0501,
        "MEAN_ANOMALY": 22.3039,
        "EPHEMERIS_TYPE": 0,
        "CLASSIFICATION_TYPE": "U",
        "NORAD_CAT_ID": 21819,
        "ELEMENT_SET_NO": 999,
        "REV_AT_EPOCH": 50494,
        "BSTAR": 0.00016529,
        "MEAN_MOTION_DOT": 8.43e-06,
        "MEAN_MOTION_DDOT": 0
    },
    {
        "OBJECT_NAME": "SL-8 R/B",
        "OBJECT_ID": "1992-008B",
        "EPOCH": "2026-05-16T15:51:01.473408",
        "MEAN_MOTION": 13.75972755,
        "ECCENTRICITY": 0.0033377,
        "INCLINATION": 82.9287,
        "RA_OF_ASC_NODE": 217.2253,
        "ARG_OF_PERICENTER": 306.0568,
        "MEAN_ANOMALY": 218.8546,
        "EPHEMERIS_TYPE": 0,
        "CLASSIFICATION_TYPE": "U",
        "NORAD_CAT_ID": 21876,
        "ELEMENT_SET_NO": 999,
        "REV_AT_EPOCH": 71876,
        "BSTAR": 5.0328e-05,
        "MEAN_MOTION_DOT": 6.4e-07,
        "MEAN_MOTION_DDOT": 0
    },
    {
        "OBJECT_NAME": "SL-8 R/B",
        "OBJECT_ID": "1992-020B",
        "EPOCH": "2026-05-16T20:07:51.987360",
        "MEAN_MOTION": 13.7554675,
        "ECCENTRICITY": 0.0030407,
        "INCLINATION": 82.9282,
        "RA_OF_ASC_NODE": 103.1414,
        "ARG_OF_PERICENTER": 106.571,
        "MEAN_ANOMALY": 264.5961,
        "EPHEMERIS_TYPE": 0,
        "CLASSIFICATION_TYPE": "U",
        "NORAD_CAT_ID": 21938,
        "ELEMENT_SET_NO": 999,
        "REV_AT_EPOCH": 71050,
        "BSTAR": -3.611e-05,
        "MEAN_MOTION_DOT": -1.9e-07,
        "MEAN_MOTION_DDOT": 0
    },
    {
        "OBJECT_NAME": "USA 81",
        "OBJECT_ID": "1992-023A",
        "EPOCH": "2026-05-16T20:08:46.694112",
        "MEAN_MOTION": 14.32388537,
        "ECCENTRICITY": 0.0002178,
        "INCLINATION": 85.006,
        "RA_OF_ASC_NODE": 92.0982,
        "ARG_OF_PERICENTER": 109.5298,
        "MEAN_ANOMALY": 250.613,
        "EPHEMERIS_TYPE": 0,
        "CLASSIFICATION_TYPE": "U",
        "NORAD_CAT_ID": 21949,
        "ELEMENT_SET_NO": 999,
        "REV_AT_EPOCH": 10454,
        "BSTAR": 3.5262e-05,
        "MEAN_MOTION_DOT": 1.15e-06,
        "MEAN_MOTION_DDOT": 0
    }
]